CCSDS_OMM_VERS = 2.0
CREATION_DATE  = 
ORIGINATOR     = 

OBJECT_NAME    = STARLINK-36905
OBJECT_ID      = 2026-050K
CENTER_NAME    = EARTH
REF_FRAME      = TEME
TIME_SYSTEM    = UTC
MEAN_ELEMENT_THEORY = SGP/SGP4

EPOCH          = 2026-03-19T13:38:05.675136
MEAN_MOTION    = 15.98675796
ECCENTRICITY   = .0000718
INCLINATION    = 53.1619
RA_OF_ASC_NODE = 232.5315
ARG_OF_PERICENTER = 321.9812
MEAN_ANOMALY   = 38.1167

EPHEMERIS_TYPE = 0
CLASSIFICATION_TYPE = U
NORAD_CAT_ID   = 68176
ELEMENT_SET_NO = 999
REV_AT_EPOCH   = 203
BSTAR          = -.14521E-2
MEAN_MOTION_DOT = -.710734E-2
MEAN_MOTION_DDOT = .17733E-3

CCSDS_OMM_VERS = 2.0
CREATION_DATE  = 
ORIGINATOR     = 

OBJECT_NAME    = STARLINK-36668
OBJECT_ID      = 2026-050L
CENTER_NAME    = EARTH
REF_FRAME      = TEME
TIME_SYSTEM    = UTC
MEAN_ELEMENT_THEORY = SGP/SGP4

EPOCH          = 2026-03-19T13:37:43.637088
MEAN_MOTION    = 15.98826248
ECCENTRICITY   = .0000696
INCLINATION    = 53.1621
RA_OF_ASC_NODE = 232.5297
ARG_OF_PERICENTER = 333.7333
MEAN_ANOMALY   = 26.3662

EPHEMERIS_TYPE = 0
CLASSIFICATION_TYPE = U
NORAD_CAT_ID   = 68177
ELEMENT_SET_NO = 999
REV_AT_EPOCH   = 203
BSTAR          = -.14604E-2
MEAN_MOTION_DOT = -.720821E-2
MEAN_MOTION_DDOT = .18212E-3

CCSDS_OMM_VERS = 2.0
CREATION_DATE  = 
ORIGINATOR     = 

OBJECT_NAME    = STARLINK-36677
OBJECT_ID      = 2026-050M
CENTER_NAME    = EARTH
REF_FRAME      = TEME
TIME_SYSTEM    = UTC
MEAN_ELEMENT_THEORY = SGP/SGP4

EPOCH          = 2026-03-19T13:37:24.300768
MEAN_MOTION    = 15.98898420
ECCENTRICITY   = .0000919
INCLINATION    = 53.1619
RA_OF_ASC_NODE = 232.5274
ARG_OF_PERICENTER = 18.8959
MEAN_ANOMALY   = 341.2106

EPHEMERIS_TYPE = 0
CLASSIFICATION_TYPE = U
NORAD_CAT_ID   = 68178
ELEMENT_SET_NO = 999
REV_AT_EPOCH   = 203
BSTAR          = -.18795E-2
MEAN_MOTION_DOT = -.929161E-2
MEAN_MOTION_DDOT = .28745E-3

CCSDS_OMM_VERS = 2.0
CREATION_DATE  = 
ORIGINATOR     = 

OBJECT_NAME    = STARLINK-37052
OBJECT_ID      = 2026-050N
CENTER_NAME    = EARTH
REF_FRAME      = TEME
TIME_SYSTEM    = UTC
MEAN_ELEMENT_THEORY = SGP/SGP4

EPOCH          = 2026-03-19T13:37:01.873056
MEAN_MOTION    = 15.99173693
ECCENTRICITY   = .0000847
INCLINATION    = 53.1613
RA_OF_ASC_NODE = 232.5262
ARG_OF_PERICENTER = 251.3193
MEAN_ANOMALY   = 108.7745

EPHEMERIS_TYPE = 0
CLASSIFICATION_TYPE = U
NORAD_CAT_ID   = 68179
ELEMENT_SET_NO = 999
REV_AT_EPOCH   = 203
BSTAR          = -.13225E-2
MEAN_MOTION_DOT = -.666179E-2
MEAN_MOTION_DDOT = .15892E-3

CCSDS_OMM_VERS = 2.0
CREATION_DATE  = 
ORIGINATOR     = 

OBJECT_NAME    = STARLINK-37035
OBJECT_ID      = 2026-050P
CENTER_NAME    = EARTH
REF_FRAME      = TEME
TIME_SYSTEM    = UTC
MEAN_ELEMENT_THEORY = SGP/SGP4

EPOCH          = 2026-03-19T13:36:44.886816
MEAN_MOTION    = 15.99266404
ECCENTRICITY   = .0000593
INCLINATION    = 53.1621
RA_OF_ASC_NODE = 232.5248
ARG_OF_PERICENTER = 324.9508
MEAN_ANOMALY   = 35.1483

EPHEMERIS_TYPE = 0
CLASSIFICATION_TYPE = U
NORAD_CAT_ID   = 68180
ELEMENT_SET_NO = 999
REV_AT_EPOCH   = 203
BSTAR          = -.13647E-2
MEAN_MOTION_DOT = -.69081E-2
MEAN_MOTION_DDOT = .16965E-3

CCSDS_OMM_VERS = 2.0
CREATION_DATE  = 
ORIGINATOR     = 

OBJECT_NAME    = STARLINK-37032
OBJECT_ID      = 2026-050Q
CENTER_NAME    = EARTH
REF_FRAME      = TEME
TIME_SYSTEM    = UTC
MEAN_ELEMENT_THEORY = SGP/SGP4

EPOCH          = 2026-03-19T13:36:22.448736
MEAN_MOTION    = 15.99422141
ECCENTRICITY   = .0000799
INCLINATION    = 53.1621
RA_OF_ASC_NODE = 232.5236
ARG_OF_PERICENTER = 332.8854
MEAN_ANOMALY   = 27.2135

EPHEMERIS_TYPE = 0
CLASSIFICATION_TYPE = U
NORAD_CAT_ID   = 68181
ELEMENT_SET_NO = 999
REV_AT_EPOCH   = 203
BSTAR          = -.13712E-2
MEAN_MOTION_DOT = -.700217E-2
MEAN_MOTION_DDOT = .17407E-3

CCSDS_OMM_VERS = 2.0
CREATION_DATE  = 
ORIGINATOR     = 

OBJECT_NAME    = STARLINK-37082
OBJECT_ID      = 2026-050R
CENTER_NAME    = EARTH
REF_FRAME      = TEME
TIME_SYSTEM    = UTC
MEAN_ELEMENT_THEORY = SGP/SGP4

EPOCH          = 2026-03-19T13:36:01.596960
MEAN_MOTION    = 15.99579072
ECCENTRICITY   = .0000964
INCLINATION    = 53.1619
RA_OF_ASC_NODE = 232.5220
ARG_OF_PERICENTER = 324.6980
MEAN_ANOMALY   = 35.3987

EPHEMERIS_TYPE = 0
CLASSIFICATION_TYPE = U
NORAD_CAT_ID   = 68182
ELEMENT_SET_NO = 999
REV_AT_EPOCH   = 203
BSTAR          = -.13413E-2
MEAN_MOTION_DOT = -.691167E-2
MEAN_MOTION_DDOT = .17038E-3

CCSDS_OMM_VERS = 2.0
CREATION_DATE  = 
ORIGINATOR     = 

OBJECT_NAME    = STARLINK-37102
OBJECT_ID      = 2026-050S
CENTER_NAME    = EARTH
REF_FRAME      = TEME
TIME_SYSTEM    = UTC
MEAN_ELEMENT_THEORY = SGP/SGP4

EPOCH          = 2026-03-19T13:35:43.723392
MEAN_MOTION    = 15.99705953
ECCENTRICITY   = .0000831
INCLINATION    = 53.1620
RA_OF_ASC_NODE = 232.5205
ARG_OF_PERICENTER = 338.3120
MEAN_ANOMALY   = 21.7875

EPHEMERIS_TYPE = 0
CLASSIFICATION_TYPE = U
NORAD_CAT_ID   = 68183
ELEMENT_SET_NO = 999
REV_AT_EPOCH   = 203
BSTAR          = -.13158E-2
MEAN_MOTION_DOT = -.683018E-2
MEAN_MOTION_DDOT = .16706E-3

CCSDS_OMM_VERS = 2.0
CREATION_DATE  = 
ORIGINATOR     = 

OBJECT_NAME    = STARLINK-36964
OBJECT_ID      = 2026-050T
CENTER_NAME    = EARTH
REF_FRAME      = TEME
TIME_SYSTEM    = UTC
MEAN_ELEMENT_THEORY = SGP/SGP4

EPOCH          = 2026-03-19T13:35:24.372384
MEAN_MOTION    = 15.99849090
ECCENTRICITY   = .0000643
INCLINATION    = 53.1619
RA_OF_ASC_NODE = 232.5189
ARG_OF_PERICENTER = 330.0119
MEAN_ANOMALY   = 30.0875

EPHEMERIS_TYPE = 0
CLASSIFICATION_TYPE = U
NORAD_CAT_ID   = 68184
ELEMENT_SET_NO = 999
REV_AT_EPOCH   = 203
BSTAR          = -.12697E-2
MEAN_MOTION_DOT = -.664681E-2
MEAN_MOTION_DDOT = .15944E-3

CCSDS_OMM_VERS = 2.0
CREATION_DATE  = 
ORIGINATOR     = 

OBJECT_NAME    = STARLINK-37061
OBJECT_ID      = 2026-050U
CENTER_NAME    = EARTH
REF_FRAME      = TEME
TIME_SYSTEM    = UTC
MEAN_ELEMENT_THEORY = SGP/SGP4

EPOCH          = 2026-03-19T13:35:07.527840
MEAN_MOTION    = 15.99892771
ECCENTRICITY   = .0000687
INCLINATION    = 53.1616
RA_OF_ASC_NODE = 232.5178
ARG_OF_PERICENTER = 57.4494
MEAN_ANOMALY   = 302.6603

EPHEMERIS_TYPE = 0
CLASSIFICATION_TYPE = U
NORAD_CAT_ID   = 68185
ELEMENT_SET_NO = 999
REV_AT_EPOCH   = 203
BSTAR          = -.16679E-2
MEAN_MOTION_DOT = -.87302E-2
MEAN_MOTION_DDOT = .25966E-3

CCSDS_OMM_VERS = 2.0
CREATION_DATE  = 
ORIGINATOR     = 

OBJECT_NAME    = STARLINK-37079
OBJECT_ID      = 2026-050V
CENTER_NAME    = EARTH
REF_FRAME      = TEME
TIME_SYSTEM    = UTC
MEAN_ELEMENT_THEORY = SGP/SGP4

EPOCH          = 2026-03-19T13:34:46.972416
MEAN_MOTION    = 16.00099925
ECCENTRICITY   = .0001058
INCLINATION    = 53.1620
RA_OF_ASC_NODE = 232.5158
ARG_OF_PERICENTER = 326.7573
MEAN_ANOMALY   = 33.3392

EPHEMERIS_TYPE = 0
CLASSIFICATION_TYPE = U
NORAD_CAT_ID   = 68186
ELEMENT_SET_NO = 999
REV_AT_EPOCH   = 203
BSTAR          = -.12815E-2
MEAN_MOTION_DOT = -.680419E-2
MEAN_MOTION_DDOT = .16664E-3

CCSDS_OMM_VERS = 2.0
CREATION_DATE  = 
ORIGINATOR     = 

OBJECT_NAME    = STARLINK-37006
OBJECT_ID      = 2026-050W
CENTER_NAME    = EARTH
REF_FRAME      = TEME
TIME_SYSTEM    = UTC
MEAN_ELEMENT_THEORY = SGP/SGP4

EPOCH          = 2026-03-19T13:34:25.626432
MEAN_MOTION    = 16.00247413
ECCENTRICITY   = .000072
INCLINATION    = 53.1620
RA_OF_ASC_NODE = 232.5147
ARG_OF_PERICENTER = 325.8020
MEAN_ANOMALY   = 34.2964

EPHEMERIS_TYPE = 0
CLASSIFICATION_TYPE = U
NORAD_CAT_ID   = 68187
ELEMENT_SET_NO = 999
REV_AT_EPOCH   = 203
BSTAR          = -.12753E-2
MEAN_MOTION_DOT = -.682857E-2
MEAN_MOTION_DDOT = .16797E-3

